OBJECT_NAME,OBJECT_ID,EPOCH,MEAN_MOTION,ECCENTRICITY,INCLINATION,RA_OF_ASC_NODE,ARG_OF_PERICENTER,MEAN_ANOMALY,EPHEMERIS_TYPE,CLASSIFICATION_TYPE,NORAD_CAT_ID,ELEMENT_SET_NO,REV_AT_EPOCH,BSTAR,MEAN_MOTION_DOT,MEAN_MOTION_DDOT
STARLINK-11144 [DTC],2024-107L,2026-07-06T20:19:19.701984,15.69716429,.0000632,53.1584,23.6692,146.2724,213.8334,0,U,59955,999,12092,-.10679E-4,-.1882E-4,0
STARLINK-11134 [DTC],2024-107M,2026-07-06T20:12:14.912064,15.69737647,.000097,53.1588,23.6313,103.0546,257.0580,0,U,59956,999,12079,.28571E-4,.2878E-4,0
STARLINK-11142 [DTC],2024-107N,2026-07-06T17:01:50.265120,15.69724739,.0000695,53.1584,24.2252,58.4097,301.6988,0,U,59957,999,12085,.11256E-6,-.574E-5,0
STARLINK-31995,2024-107P,2026-07-06T11:31:09.579072,15.34373930,.00009488,53.1584,233.0643,82.7282,277.3828,0,U,59958,999,11679,.39263466E-4,.95E-5,0
STARLINK-31989,2024-107Q,2026-07-06T09:24:02.092896,15.34373647,.0001033,53.1591,233.2273,104.9322,255.1795,0,U,59959,999,11798,-.31621E-3,-.11035E-3,0
STARLINK-31856,2024-107R,2026-07-06T10:48:44.928000,15.34365574,.0001333,53.1583,232.8809,117.3349,242.7789,0,U,59960,999,11799,-.16867E-3,-.6064E-4,0
STARLINK-31993,2024-107S,2026-07-06T14:17:32.908992,15.34381626,.0001142,53.1581,232.3624,89.3205,270.7928,0,U,59961,999,11795,.18555E-4,.25E-5,0
STARLINK-31980,2024-107T,2026-07-06T10:51:47.860128,15.34374700,.0001386,53.1595,232.8932,89.0068,271.1094,0,U,59962,999,11799,-.15475E-3,-.5597E-4,0
STARLINK-31991,2024-107U,2026-07-06T09:54:21.542112,15.34362206,.0001237,53.1578,233.3553,81.8017,278.3126,0,U,59963,999,11798,.6521E-4,.1825E-4,0
STARLINK-31979,2024-107V,2026-07-06T09:27:03.918240,15.34369247,.0001104,53.1580,233.2349,101.3836,258.7290,0,U,59964,999,11793,-.19196E-3,-.685E-4,0
STARLINK-31978,2024-111A,2026-07-06T11:06:45.874080,15.31705834,.0001001,53.1591,243.5565,91.3340,268.7776,0,U,60016,999,11712,-.30011E-4,-.1296E-4,0
STARLINK-31987,2024-111B,2026-07-06T09:39:32.230368,15.31687733,.0001257,53.1591,243.8895,87.4791,272.6354,0,U,60017,999,11717,-.29715E-4,-.1287E-4,0
STARLINK-31984,2024-111C,2026-07-06T10:46:18.873984,15.30176506,.0001266,53.1573,244.1747,92.7694,267.3452,0,U,60018,999,11706,.55979E-3,.16244E-3,0
STARLINK-31986,2024-111D,2026-07-06T10:32:37.349952,15.30178867,.0001294,53.1599,244.1084,92.6396,267.4753,0,U,60019,999,11722,-.72133E-4,-.2493E-4,0
STARLINK-31883,2024-111E,2026-07-06T09:27:24.765696,15.30203280,.0001122,53.1591,244.5468,79.6035,280.5092,0,U,60020,999,11715,.33741E-4,.64E-5,0
STARLINK-31967,2024-111F,2026-07-06T11:18:27.950112,15.34367071,.0001268,53.1592,241.4769,75.9398,284.1745,0,U,60021,999,11726,.15952E-4,.162E-5,0
STARLINK-31982,2024-111G,2026-07-06T11:09:22.863744,15.34389393,.0001375,53.1598,241.4408,91.6202,268.4958,0,U,60022,999,11726,-.52537E-4,-.215E-4,0
STARLINK-31992,2024-111H,2026-07-06T10:25:00.420096,15.30197534,.0001273,53.1610,244.0839,82.4719,277.6427,0,U,60023,999,11722,-.58428E-4,-.2089E-4,0
STARLINK-31990,2024-111J,2026-07-06T10:18:56.663136,15.30195862,.0001205,53.1597,244.0555,80.2607,279.8530,0,U,60024,999,11721,-.62996E-4,-.2224E-4,0
STARLINK-31939,2024-111L,2026-07-06T11:33:14.631840,15.30196984,.0001235,53.1611,243.6667,77.2126,282.9013,0,U,60026,999,11722,-.13185E-4,-.75E-5,0
STARLINK-32012,2024-111M,2026-07-06T10:03:45.546624,15.30179658,.0001286,53.1599,243.9855,82.7092,277.4055,0,U,60027,999,11721,-.10696E-3,-.3523E-4,0
STARLINK-32008,2024-111N,2026-07-06T10:09:49.327776,15.30166435,.0001253,53.1590,244.0098,84.7258,275.3885,0,U,60028,999,11721,.25905E-3,.7313E-4,0
STARLINK-32006,2024-111P,2026-07-06T10:23:30.080256,15.30186653,.0001064,53.1595,244.0745,80.7309,279.3812,0,U,60029,999,11721,-.71531E-4,-.2476E-4,0
STARLINK-32011,2024-111Q,2026-07-06T11:15:26.858304,15.34377391,.000134,53.1582,241.4692,79.0899,281.0254,0,U,60030,999,11725,.1393E-3,.433E-4,0
STARLINK-31878,2024-111R,2026-07-06T17:18:38.053728,15.34364348,.0001408,53.1596,189.6570,99.3694,260.7468,0,U,60031,999,11775,.22191E-5,-.301E-5,0
STARLINK-32017,2024-111S,2026-07-06T10:29:34.721952,15.30185095,.0000974,53.1582,244.1208,82.2405,277.8706,0,U,60032,999,11721,-.18564E-3,-.585E-4,0
STARLINK-32005,2024-111U,2026-07-06T10:14:22.181568,15.30174063,.0001339,53.1591,244.0329,89.0390,271.0764,0,U,60034,999,11711,-.17127E-3,-.5424E-4,0
STARLINK-31981,2024-111V,2026-07-06T09:07:41.453760,15.30195754,.00013029,53.1603,244.4558,83.4026,276.7123,0,U,60035,999,11713,-.74329824E-4,-.256E-4,0
STARLINK-31985,2024-111W,2026-07-06T10:37:11.129952,15.30184653,.0001114,53.1603,244.1318,92.8333,267.2796,0,U,60036,999,11715,.61353E-4,.1458E-4,0
STARLINK-31918,2024-111X,2026-07-06T11:28:35.613408,15.30260991,.0001384,53.1601,243.6434,96.8096,263.3063,0,U,60037,999,11715,.23403E-3,.6591E-4,0
