STARLINK-11144 [DTC]    
1 59955U 24107L   26187.84675581 -.00001882  00000+0 -10679-4 0  9992
2 59955  53.1584  23.6692 0000632 146.2724 213.8334 15.69716429120924
STARLINK-11134 [DTC]    
1 59956U 24107M   26187.84183926  .00002878  00000+0  28571-4 0  9994
2 59956  53.1588  23.6313 0000970 103.0546 257.0580 15.69737647120790
STARLINK-11142 [DTC]    
1 59957U 24107N   26187.70960955 -.00000574  00000+0  11256-6 0  9991
2 59957  53.1584  24.2252 0000695  58.4097 301.6988 15.69724739120857
STARLINK-31995          
1 59958U 24107P   26187.47997198  .00000950  00000+0  39263-4 0  9998
2 59958  53.1584 233.0643 0000948  82.7282 277.3828 15.34373930116794
STARLINK-31989          
1 59959U 24107Q   26187.39169089 -.00011035  00000+0 -31621-3 0  9997
2 59959  53.1591 233.2273 0001033 104.9322 255.1795 15.34373647117986
STARLINK-31856          
1 59960U 24107R   26187.45052000 -.00006064  00000+0 -16867-3 0  9991
2 59960  53.1583 232.8809 0001333 117.3349 242.7789 15.34365574117995
STARLINK-31993          
1 59961U 24107S   26187.59551978  .00000250  00000+0  18555-4 0  9991
2 59961  53.1581 232.3624 0001142  89.3205 270.7928 15.34381626117959
STARLINK-31980          
1 59962U 24107T   26187.45263727 -.00005597  00000+0 -15475-3 0  9997
2 59962  53.1595 232.8932 0001386  89.0068 271.1094 15.34374700117994
STARLINK-31991          
1 59963U 24107U   26187.41274933  .00001825  00000+0  65210-4 0  9996
2 59963  53.1578 233.3553 0001237  81.8017 278.3126 15.34362206117982
STARLINK-31979          
1 59964U 24107V   26187.39379535 -.00006850  00000+0 -19196-3 0  9994
2 59964  53.1580 233.2349 0001104 101.3836 258.7290 15.34369247117939
STARLINK-31978          
1 60016U 24111A   26187.46303095 -.00001296  00000+0 -30011-4 0  9994
2 60016  53.1591 243.5565 0001001  91.3340 268.7776 15.31705834117123
STARLINK-31987          
1 60017U 24111B   26187.40245637 -.00001287  00000+0 -29715-4 0  9995
2 60017  53.1591 243.8895 0001257  87.4791 272.6354 15.31687733117170
STARLINK-31984          
1 60018U 24111C   26187.44882956  .00016244  00000+0  55979-3 0  9998
2 60018  53.1573 244.1747 0001266  92.7694 267.3452 15.30176506117060
STARLINK-31986          
1 60019U 24111D   26187.43932118 -.00002493  00000+0 -72133-4 0  9999
2 60019  53.1599 244.1084 0001294  92.6396 267.4753 15.30178867117227
STARLINK-31883          
1 60020U 24111E   26187.39403664  .00000640  00000+0  33741-4 0  9997
2 60020  53.1591 244.5468 0001122  79.6035 280.5092 15.30203280117158
STARLINK-31967          
1 60021U 24111F   26187.47115683  .00000162  00000+0  15952-4 0  9991
2 60021  53.1592 241.4769 0001268  75.9398 284.1745 15.34367071117262
STARLINK-31982          
1 60022U 24111G   26187.46484796 -.00002150  00000+0 -52537-4 0  9996
2 60022  53.1598 241.4408 0001375  91.6202 268.4958 15.34389393117269
STARLINK-31992          
1 60023U 24111H   26187.43403264 -.00002089  00000+0 -58428-4 0  9991
2 60023  53.1610 244.0839 0001273  82.4719 277.6427 15.30197534117229
STARLINK-31990          
1 60024U 24111J   26187.42982249 -.00002224  00000+0 -62996-4 0  9992
2 60024  53.1597 244.0555 0001205  80.2607 279.8530 15.30195862117216
STARLINK-31939          
1 60026U 24111L   26187.48141935 -.00000750  00000+0 -13185-4 0  9997
2 60026  53.1611 243.6667 0001235  77.2126 282.9013 15.30196984117227
STARLINK-32012          
1 60027U 24111M   26187.41927716 -.00003523  00000+0 -10696-3 0  9994
2 60027  53.1599 243.9855 0001286  82.7092 277.4055 15.30179658117217
STARLINK-32008          
1 60028U 24111N   26187.42348759  .00007313  00000+0  25905-3 0  9998
2 60028  53.1590 244.0098 0001253  84.7258 275.3885 15.30166435117217
STARLINK-32006          
1 60029U 24111P   26187.43298704 -.00002476  00000+0 -71531-4 0  9998
2 60029  53.1595 244.0745 0001064  80.7309 279.3812 15.30186653117213
STARLINK-32011          
1 60030U 24111Q   26187.46906086  .00004330  00000+0  13930-3 0  9999
2 60030  53.1582 241.4692 0001340  79.0899 281.0254 15.34377391117254
STARLINK-31878          
1 60031U 24111R   26187.72127377 -.00000301  00000+0  22191-5 0  9993
2 60031  53.1596 189.6570 0001408  99.3694 260.7468 15.34364348117755
STARLINK-32017          
1 60032U 24111S   26187.43720743 -.00005850  00000+0 -18564-3 0  9990
2 60032  53.1582 244.1208 0000974  82.2405 277.8706 15.30185095117215
STARLINK-32005          
1 60034U 24111U   26187.42664562 -.00005424  00000+0 -17127-3 0  9998
2 60034  53.1591 244.0329 0001339  89.0390 271.0764 15.30174063117116
STARLINK-31981          
1 60035U 24111V   26187.38034090 -.00002560  00000+0 -74330-4 0  9999
2 60035  53.1603 244.4558 0001302  83.4026 276.7123 15.30195754117136
STARLINK-31985          
1 60036U 24111W   26187.44248993  .00001458  00000+0  61353-4 0  9990
2 60036  53.1603 244.1318 0001114  92.8333 267.2796 15.30184653117153
STARLINK-31918          
1 60037U 24111X   26187.47818997  .00006591  00000+0  23403-3 0  9997
2 60037  53.1601 243.6434 0001384  96.8096 263.3063 15.30260991117158
